{
    "links": {
        "self": "http://www.neowsapp.com/rest/v1/neo/54054461?api_key=iIulBulltgU6a56xZRHN4H3l9WmuAYTsLGpBGhQ2"
    },
    "id": "54054461",
    "neo_reference_id": "54054461",
    "name": "(2020 SZ)",
    "designation": "2020 SZ",
    "nasa_jpl_url": "http://ssd.jpl.nasa.gov/sbdb.cgi?sstr=54054461",
    "absolute_magnitude_h": 23.105,
    "estimated_diameter": {
        "kilometers": {
            "estimated_diameter_min": 0.0636143328,
            "estimated_diameter_max": 0.1422459725
        },
        "meters": {
            "estimated_diameter_min": 63.6143328053,
            "estimated_diameter_max": 142.2459724958
        },
        "miles": {
            "estimated_diameter_min": 0.0395281016,
            "estimated_diameter_max": 0.0883875222
        },
        "feet": {
            "estimated_diameter_min": 208.7084476408,
            "estimated_diameter_max": 466.6862764033
        }
    },
    "is_potentially_hazardous_asteroid": false,
    "close_approach_data": [
        {
            "close_approach_date": "2020-09-22",
            "close_approach_date_full": "2020-Sep-22 02:23",
            "epoch_date_close_approach": 1600741380000,
            "relative_velocity": {
                "kilometers_per_second": "7.311623974",
                "kilometers_per_hour": "26321.8463064354",
                "miles_per_hour": "16355.3716674626"
            },
            "miss_distance": {
                "astronomical": "0.2088107411",
                "lunar": "81.2273782879",
                "kilometers": "31237642.101681457",
                "miles": "19410170.7404078266"
            },
            "orbiting_body": "Earth"
        },
        {
            "close_approach_date": "2027-08-31",
            "close_approach_date_full": "2027-Aug-31 03:09",
            "epoch_date_close_approach": 1819681740000,
            "relative_velocity": {
                "kilometers_per_second": "10.1389579211",
                "kilometers_per_hour": "36500.24851596",
                "miles_per_hour": "22679.8349737086"
            },
            "miss_distance": {
                "astronomical": "0.2946818473",
                "lunar": "114.6312385997",
                "kilometers": "44083776.683745251",
                "miles": "27392388.6293404238"
            },
            "orbiting_body": "Earth"
        }
    ],
    "orbital_data": {
        "orbit_id": "8",
        "orbit_determination_date": "2020-11-10 05:19:18",
        "first_observation_date": "2020-09-16",
        "last_observation_date": "2020-11-10",
        "data_arc_in_days": 55,
        "observations_used": 30,
        "orbit_uncertainty": "6",
        "minimum_orbit_intersection": ".142193",
        "jupiter_tisserand_invariant": "3.411",
        "epoch_osculation": "2459000.5",
        "eccentricity": ".4997770714067673",
        "semi_major_axis": "2.291246026374127",
        "inclination": "7.475847038146562",
        "ascending_node_longitude": "167.1103394114798",
        "orbital_period": "1266.794047624588",
        "perihelion_distance": "1.146133797440473",
        "perihelion_argument": "188.3587534872764",
        "aphelion_distance": "3.436358255307781",
        "perihelion_time": "2459118.929574037448",
        "mean_anomaly": "326.3444529650048",
        "mean_motion": ".2841819478667817",
        "equinox": "J2000",
        "orbit_class": {
            "orbit_class_type": "AMO",
            "orbit_class_description": "Near-Earth asteroid orbits similar to that of 1221 Amor",
            "orbit_class_range": "1.017 AU < q (perihelion) < 1.3 AU"
        }
    },
    "is_sentry_object": false
}